State,Store Name,Store Address,Store Timings,Store Name + State,latitude,longitude
AASAM,MINISO CHIRANG,"Chapaguri Road,rwimupur,ward No.4, Near Royal Decor, 1st Floor , Chirang , Vassam",09:30 AM to 8:00 PM,"MINISO CHIRANG, AASAM",26.6519383,90.62693595
AASAM,MINISO DIPHU,Rongkhelan Opp. Don Bosco Higher Secondary School Diphu - 782460,9:30 AM to 8:00 PM,"MINISO DIPHU, AASAM",25.84703,93.42487
Ahmedabad,TRP MALL AHEMEDABAD,"Shop No.67&68, Trp Mall, Brts Main Road , Bhopal , Ahmedabad, Gujrat 3080058",11:00 AM to 10:00 PM,"TRP MALL AHEMEDABAD, Ahmedabad",23.03145,72.47071
Ahmedabad,CG ROAD,"Shop No. 3, Rudra Plus Complex, Chimanlal Girdhar Lal Road, Opp. Girish Coldrink, Ahmedabad, Gujarat",,"CG ROAD, Ahmedabad",23.0224061,72.55634198
Ahmedabad,CG ROAD,"Shop No. 3, Rudra Plus Complex, Chimanlal Girdhar Lal Road, Opp. Girish Coldrink, Ahmedabad, Gujarat - 380009",11:00 AM to 9:00 PM,"CG ROAD, Ahmedabad",23.0224061,72.55634198
Aizawl,MSR MARKET,"Msr Market, Near Basketball Court, Babutlang, Zarkawt, Aizawl, Mizoram - 796001",11:00 AM to 9:00 PM,"MSR MARKET, Aizawl",23.72894,92.71791
AJMER,MINISO AJMER,"Plot No 5, G-floor, Vaishali Nagar, Ajmer, Rajasthan
",11:00 AM - 10:00 PM,"MINISO AJMER, AJMER",26.46554,74.63173
Ambala,AMBALA,"Shop No. 35, Nh-1 Factory Stores, Ambala-delhi Highway, Kuldeep Nagar, Ambala Cantt-133004 Haryana",11:00 AM - 10:00 PM,"AMBALA, Ambala",30.36099,76.79782
Amritsar,MALL OF AMRITSAR,"Mall Of Amritsar, Mbm Farm, G T Road, Amritsar, Punjab - 143001",11:00 AM to 10:00 PM,"MALL OF AMRITSAR, Amritsar",31.6192,74.90789
Amritsar,TRILIUM MALL,"Trilium Mall, Plot No. C- Adjacent Nirankari Colony, 4, Circular Road, Medical Enclave, Amritsar, Punjab - 143001",11:00 AM to 10:00 PM,"TRILIUM MALL, Amritsar",31.65794,74.87799
Andra Pradesh,MINISO KAKINADA,"


104,1st Floor ,82 East Srmt Mall,kakinada,andra Pradesh 533005


",10:00 AM to 9:00 PM,"MINISO KAKINADA, Andra Pradesh",16.96036,82.23809
Andra Pradesh,MINISO KURNAAL,"


117, 1st Floor,jyoti Mall,gandhi Nagar,kurnool.


",10:00 AM to 9:00 PM,"MINISO KURNAAL, Andra Pradesh",14.43173,79.96719
Andra Pradesh,GANDHI NAGAR VELLORE,25 14th East Cross Road Opp Pvr Velocity Gandhi Nagar Vellore,10:30 AM to 9:00 PM,"GANDHI NAGAR VELLORE, Andra Pradesh",14.41159085,79.94823592
Andra Pradesh,KURNOOL ROAD ONGOLE,"Sabrigrisha Complex 1st Floor, Shop No-22, Ongole, Andhra Pradesh 523001",10:30 AM to 9:00 PM,"KURNOOL ROAD ONGOLE, Andra Pradesh",15.5289985,80.01164365
Andra Pradesh,PVP MALL,"Pvp Square ,door No: 39-1-57, M.g Road,1f-12-14, Pin- 520010",9:30 AM to 9:30 PM,"PVP MALL, Andra Pradesh",16.50606,80.64436
Andra Pradesh,MGB FELICITY MALL,"Mgb Felicity Mall, Nellore, Dargamitta Ward No. 24, Nellore District, Nellore Town, Plot Bearing Number 15 To 23 In Survey No.s, Old Survey No. 1866/4, Resurvey No. 1576/1045 And Old Survey No. 1867/1, Re-survey 1576/1049 Pin- 524003",10:30 AM to 9:30 PM,"MGB FELICITY MALL, Andra Pradesh",14.44332,79.9727
Arunachal Pradesh,MINISO AALO,"Sumo Counter ,opposite New Market,aalo,west Siang ,arunachal Pradesh
",10:00 AM to 8:00 PM,"MINISO AALO, Arunachal Pradesh",28.17012,94.79823
Arunachal Pradesh,LIKABALI STORE,Miniso Likabali Main Market Arunachal Pradesh,10:00 AM to 7:00 PM,"LIKABALI STORE, Arunachal Pradesh",27.70494,94.67236
Arunachal Pradesh,NAHARLAGUN,"Nh415, Behind R J. Jewellers, A - Sector, 791110
",10:00 AM to 8:00 PM,"NAHARLAGUN, Arunachal Pradesh",27.10838,93.69792
Arunachal Pradesh,ZERO POINT ZERO POINT,"Building Sunsine Plaza, Opp Bank Of Baroda,0, Point Tiniali, Itanagar-791111
",10:00 AM to 8:00 PM,"ZERO POINT ZERO POINT, Arunachal Pradesh",27.8123,93.53373
Arunachal Pradesh,PASIGHAT,"Taga Building, Near Pane Hotel, Pashighat, Arunachal Pradesh-791102
",09:00 AM to 07:00 PM,"PASIGHAT, Arunachal Pradesh",28.06697,95.3268
aurangabad,NIRALA BAZAAR AURANGABAD,Shop No 13.14 Tapadiya Circle Near Domino's Nirala Bazar Aurangabad,10:00 AM to 10:10 PM,"NIRALA BAZAAR AURANGABAD, aurangabad",19.87834381,75.32584472
BELAGAVI,SHERI LIFESTYLES,Khade Bazzar,10:00 AM to 9:00 PM,"SHERI LIFESTYLES, BELAGAVI",15.86702,74.51167
Bengaluru,RR NAGAR,Rr Nagar Store,10:00 AM to 9:00 PM,"RR NAGAR, Bengaluru",13.02445,77.59583
Bengaluru,FORUM NEIGHBOURHOOD MALL,"No 62 Prestige Ozone, Whitefield Bengaluru Karnataka Post Code-560066",10:00 AM to 9:30 PM,"FORUM NEIGHBOURHOOD MALL, Bengaluru",12.96005,77.74714
Bengaluru,JAYANAGAR 4TH BLOCK MARKET STORE,"Shop No 2,3,4,10 Main ,27th B Cross Jayanagar 4rth Block, Bangalore 560041
",10:30 AM to 9:00 PM,"JAYANAGAR 4TH BLOCK MARKET STORE, Bengaluru",12.92861,77.58447
Bengaluru,PHOENIX MALL,"Frist Floor Phoenix Market City,bangalore,whitefield Main Rd, Devasandra Industrial Estate, Mahadevapura, Bengaluru, Karnataka 560048",11:00 AM to 9:30 PM,"PHOENIX MALL, Bengaluru",12.98401,77.64063
Bengaluru,FORUM MALL,"Frist Floor,shop No-117 The Forum Mall,21 Hosur Road, Bengalure Urban Karnataka,560095",10:00 AM to 9:30 PM,"FORUM MALL, Bengaluru",12.96758,77.58912
Bengaluru,BRIDAGE ROAD STORE,"Miniso Lifestyle Pvt Ltd Muniv=cipal No 217 Old No,1 Brigade Road Bangalure(bangalore) Urban,karnataka,560001",11:00 AM to 8:30 PM,"BRIDAGE ROAD STORE, Bengaluru",12.99082,77.75073
Bengaluru,ORION MALL AT BRIGADE GATEWAY,"Brigade Gateway, 26/1 Dr. Rajkumar Road, Malleshwaram West, Bengaluru, Karnataka - 560055",11:00 AM to 10:00 PM,"ORION MALL AT BRIGADE GATEWAY, Bengaluru",13.01210432,77.55499001
Bengaluru,JAYANAGAR,"Shop Premises No. 2, No. 3, No. 4, Ground Floor New No. 2801/1, 2801/2, 2801/3, 28th Cross, 10th Main Road, 4th Block, Jayanagar, Bengaluru - 560011",11:00 AM to 9:00 PM,"JAYANAGAR, Bengaluru",12.92868,77.5827
Bengaluru,GOPALAN SIGNATURE MALL,"Shop # Gf 1a, No. 6, Ground Floor, Gopalan Signature Mall, Old Madras Road, Nagavara Palya, Cv Raman Nagar, Bengaluru, Karnataka - 560093",11:00 AM to 10:00 PM,"GOPALAN SIGNATURE MALL, Bengaluru",12.99326,77.66148
Bengaluru,INDIRANAGAR,"No. 1134, 100 Feet Road, Hal 2nd Stage, Indiranagar, Bengaluru",11:00 AM to 9:00 PM,"INDIRANAGAR, Bengaluru",13.03006,77.49526
Bengaluru,RMZ GALLERIA MALL,"Rmz Galleria Mall, Opposite Yelahanka Police Station, Ambedkar Colony, Yelahanka, Bengaluru, Karnataka - 560064",11:00 AM to 10:00 PM,"RMZ GALLERIA MALL, Bengaluru",13.09441,77.59471
Bengaluru,FORUM SHANTINIKETAN,"Forum Shantiniketan Mall, Thiglarapalya, Whitefield, Bengaluru, Karnataka - 560067",11:00 AM to 10:00 PM,"FORUM SHANTINIKETAN, Bengaluru",12.98944,77.72707
Bengaluru,COMMERCIAL STREET,"Al Karam 110, Commercial Street, Bengaluru, Karnataka - 560001",11:00 AM to 9:00 PM,"COMMERCIAL STREET, Bengaluru",12.98223177,77.60826889
Bengaluru,BRIGADE ROAD,"Haridevpur, Shantala Nagar, Ashok Nagar, Bengaluru, Karnataka - 560001",11:00 AM to 9:00 PM,"BRIGADE ROAD, Bengaluru",12.97504999,77.60797998
Bengaluru,PHOENIX MARKETCITY BANGALORE,"First Floor, Phoenix Marketcity, Whitefield Main Road, Bengaluru",11:00 AM to 10:00 PM,"PHOENIX MARKETCITY BANGALORE, Bengaluru",12.99546,77.69585
Bhatinda,MINISO BHATINDA,"Shop No 117, Nh7, Factory Outlet Barnala Highway Bhuchomandi Bhatinda, Punjab-151101",11:00 AM - 09:30 PM,"MINISO BHATINDA, Bhatinda",30.20747,74.93893
Bhilai,BHILAI MINISO,"36a 1st Floor ,suriyamall Teasure Bhilai",10:00 AM to 9:00 PM,"BHILAI MINISO, Bhilai",21.22074,81.37976
Bhilai,VYAVASAYIK  PARISAR,"Vyavasayik  Parisar, Akashganga, Opp. India Coffee House, Supela, Bhilai, Chhattisgarh - 490023",11:00 AM to 9:00 PM,"VYAVASAYIK  PARISAR, Bhilai",21.22074,81.37976
Bhubaneswar,KIIT SQUARE,"Lower Ground Floor, Maruti Corner, Kiit Square, Patia, Bhubaneswar, Odisha - 751024",11:00 AM to 9:00 PM,"KIIT SQUARE, Bhubaneswar",20.35332,85.82639
Bhubaneswar,ESPLANADE,"Rasulgarh Industrial Estate, Industrial Area Estate, Rasulgarh, Bhubaneswar, Odisha - 751007",11:00 AM to 10:00 PM,"ESPLANADE, Bhubaneswar",20.29133,85.85746
Chandigarh,MINISO SECTOR-35,"Sco No.461, Sector 35c, Chandigarh, Punjab, 166003",11:00 AM - 09:30 PM,"MINISO SECTOR-35, Chandigarh",30.72586,76.75954
Chattisgarh,MINISO KORBA,The Palm Mall 1st Floor Shop No .136 Korba Chhattisgarh 495677,10:00 AM to 9:00 PM,"MINISO KORBA, Chattisgarh",22.3458,82.69633
Chennai,MINISO CHROMEPET,"Shop No- 148, Gst Road, Next Vetri Theatre, Chromepet, Chennai-600044",10:00 AM to 9:00 PM,"MINISO CHROMEPET, Chennai",12.95233,80.14411
Chennai,EXPRESS AVENUE,"Shop : 133 , Miniso Lifestyle , Express Avenue Mall, Pattulos Road , Express Estate , Thousand Lights, Chennai , Tamil Nadu .
Pincode : 600002",10:00 AM to 9:30 PM,"EXPRESS AVENUE, Chennai",13.05915,80.2641
Chennai,PHOENIX MARKETCITY (CHENNAI),"Shop No. G 40b, Phoenix Marketcity, 142, Velachery Bypass Rd, Indira Gandhi Nagar, Velachery, Chennai, Tamil Nadu - 600042",11:00 AM to 10:00 PM,"PHOENIX MARKETCITY (CHENNAI), Chennai",13.02302,80.21713
Chennai,FORUM VIJAYA MALL,"Forum Vijaya Mall, Nsk Salai, Arcot Road, Vadapalani, Chennai, Tamil Nadu - 600026",11:00 AM to 10:00 PM,"FORUM VIJAYA MALL, Chennai",13.04974,80.20946
Coimbatore,BROOKFIELD MALL,"G-3, Ground Floor, Brookefields Mall, Dr Krishnasamy Mudaliyar Rd, Coimbatore, Tamil Nadu 641001",10:30 AM to 9:30 PM,"BROOKFIELD MALL, Coimbatore",11.00992,76.95798
Coimbatore,"PROZONE MALL, COIMBATORE STORE","Shop No.- F-58 F-59 First Floor Prozone Mall Ild Sivanandha Mills, Coimbature Tamil Nadu-641035
",10:30 AM to 9:30 PM,"PROZONE MALL, COIMBATORE STORE, Coimbatore",11.05423,76.99425
Coimbatore,PROZONE MALL,"Prozone Mall, Sathy Rd, Saravanampatty, Coimbatore, Tamil Nadu - 641035",11:00 AM to 10:00 PM,"PROZONE MALL, Coimbatore",11.05423,76.99425
Darjeeling,RAMADA DARJEELING,"Ramada Hotel, Ground Floor, 9th Gandhi Road, Darjeeling, West Bengal - 734101",11:00 AM to 9:00 PM,"RAMADA DARJEELING, Darjeeling",27.02198,88.15198
DB bhopal mall,DB BHOPAL MALLDB BHOPAL MALL,"Lg-1 & 2,?db City Mall, Opp Mp Nagar Zone-1, On Khasra 1511 & 1509, Ar Pin 462011", 11:00 AM to 9:30 PM,"DB BHOPAL MALLDB BHOPAL MALL, DB bhopal mall",23.26466,77.40521
DEHRADUN,MINISO DEHRADUN,"Pacific Mall, Rajpur Road Dehradun",11:00 AM to 10:00 PM,"MINISO DEHRADUN, DEHRADUN",30.36588,78.0708
Devaraj Road Mysore,DEVARAJ ROAD MYSORE,100 Footline Devraj Urs Road,10:30 AM to 9:30 PM,"DEVARAJ ROAD MYSORE, Devaraj Road Mysore",12.30929024,76.64817031
Dhanbad,OZONE GALLERIA MALL,"Ozone Galleria Mall, Sugiadih, Sahayogi Nagar Sector Ii, Dhanbad, Jharkhand - 828127",11:00 AM to 10:00 PM,"OZONE GALLERIA MALL, Dhanbad",23.82047,86.46989
Dharamshala,DHARAMSHALA STORE,"Vedanta Mall, Temple Road, Dharamshala, Himachal Pradesh.
",11:00 AM - 10:00 PM,"DHARAMSHALA STORE, Dharamshala",32.19888,76.33704
Dimapur,MINISO DIMAPUR,"7th Mile, Ward No:11, Chumukedima, Nagaland-797103",09:00 AM - 08:00 PM,"MINISO DIMAPUR, Dimapur",25.91174,93.7217
ERODE,MINISO ERODE,"60/55b, Perundurai Road,opp. Reliance Mall, Erode-638011",10:00 AM to 9:00 PM,"MINISO ERODE, ERODE",11.34065,77.71723
Faridabad,CROWN INTERIORZ,"Shop No: 7, Ground Floor, Crown Interiorz Mall, Faridabad",11:00 AM to 10:00 PM,"CROWN INTERIORZ, Faridabad",28.46973,77.30689
Gandhi Nagar Vellore,GANDHI NAGAR VELLORE,25 14th East Cross Road Opp Pvr Velocity Gandhi Nagar Vellore,10:30 AM to 9:00 PM,"GANDHI NAGAR VELLORE, Gandhi Nagar Vellore",12.94234,79.17241
Gandhidham,GANDHIDHAM,"Way To Bhai Pratap Cir, Ward 12a, Gandhidham, Gujarat 370201",11:00 AM to 10:00 PM,"GANDHIDHAM, Gandhidham",23.08758,70.145
Ghaziabad,"SHIPRA MALL, INDIRAPURAM","Shipra Suncity, Indirapuram, Ghaziabad, Uttar Pradesh - 201014",11:00 AM to 10:00 PM,"SHIPRA MALL, INDIRAPURAM, Ghaziabad",28.63534,77.36931
Ghaziabad,RDC RAJNAGAR,"Rajnagar District Center, Block 1, P & T Colony, Opp. Gaur Central Mall, Raj Nagar, Ghaziabad, Uttar Pradesh - 201002",11:00 AM to 9:00 PM,"RDC RAJNAGAR, Ghaziabad",28.67321,77.44305
Ghaziabad,PACIFIC MALL GHAZIABAD,"Gf-7&8, Pacific Mall, Sahibabad Industrial Area, Plot No1, Ghaziabad",11:00 AM to 10:00 PM,"PACIFIC MALL GHAZIABAD, Ghaziabad",28.64567,77.32002
Gorakhpur,ORION MALL GORAKHPUR,"F-2. First Floor, Orion Mall, Mohaddipur, Gorakhpur, 2703008",11:00 AM to 10:00 PM,"ORION MALL GORAKHPUR, Gorakhpur",26.74952,83.40043
Gorakhpur,AD MALL,"Vijay Chowk, Cinema Rd, Shahpur, Gorakhpur, Uttar Pradesh - 273001",11:00 AM to 10:00 PM,"AD MALL, Gorakhpur",26.75664,83.36671
Greater Noida,OMAXE CONNAUGHT PLACE,"Shop No: 18 & 19, Ground Floor, Omaxe Connaught Place, Greater Noida, Uttar Pradesh",11:00 AM to 10:00 PM,"OMAXE CONNAUGHT PLACE, Greater Noida",28.48767,77.51484
Gujarat,MINISO BHARUCH,Antarim Foodcourt Next To Bahruch Rto,10:00 AM to 9:00 PM,"MINISO BHARUCH, Gujarat",21.69482,72.9805
Gurugram,CYBER HUB,"Miniso , Ground Floor Bulding 10a Cybercity Gurguram",11:00 AM to 9:15 PM,"CYBER HUB, Gurugram",28.49725,77.08988
Gurugram,MGF METROPOLIS MALL,"74, Mehrauli-gurgaon Rd, Maruti Housing Colony, Sector 17, Gurugram, Haryana - 122003",11:00 AM to 10:00 PM,"MGF METROPOLIS MALL, Gurugram",28.4796,77.08205
Gurugram,MGF METROPOLITAN MALL,"Store No: 75 & 76, Ground Floor, Mgf Metropolitan Mall, Gurugram",11:00 AM to 10:00 PM,"MGF METROPOLITAN MALL, Gurugram",28.4801,77.08059
Gwalior,MINISO GWALIOR,"Rukmani Mansion, Sarafa Bazar, Lashkar, Gwalior, Madhya Pradesh- 474001",11:00 AM - 09:30 PM,"MINISO GWALIOR, Gwalior",26.22011,78.1762
Haldwani,WALKWAY MALL,"501-505, Walkaway Mall, Walkway Office Suits, Nainital Road, Haldwani, Po-katjkodam, Uttarakhand,-263136",11:00 AM to 10:00 PM,"WALKWAY MALL, Haldwani",29.24486,79.53599
Haldwani,WALKWAY BY SHARDA,"Shop No. 105, First Floor, Walkway Mall, Nainital Road, Haldwani, District - Nainital, Uttarakhand - 263126",11:00 AM to 10:00 PM,"WALKWAY BY SHARDA, Haldwani",29.22254,79.5286
haryana,MINISO MGF,"


gf-31&32 Mgf Metropolitan, Gurugram Harayana.


",10:00 AM to 9:00 PM,"MINISO MGF, haryana",28.46973,77.30689
Hisar,HISAR,"Scf-45 Urban Estate, Hisar, Haryana - 125001",11:00 AM - 10:00 PM,"HISAR, Hisar",29.15394,75.72294
Howrah,AVANI RIVERSIDE MALL,"Avani Riverside Mall, 32, Jagat Banerjee Ghat Road, Howrah, West Bengal - 711102",11:00 AM to 10:00 PM,"AVANI RIVERSIDE MALL, Howrah",22.56268,88.32275
HUBLI,MINISO HUBLI,"Cts-4647,19, Shirur Park Vidhya Nagar, Hubballi",10:00 AM to 9:00 PM,"MINISO HUBLI, HUBLI",15.35046,75.13739
Hyderabad,MINISO HYDERABAD,"


hyderabad Next Galleria Mall Moosarambagh Metro Station


",10:00 AM to 9:00 PM,"MINISO HYDERABAD, Hyderabad",17.42065,78.45576
Hyderabad,MINISO RGI AIRPORT,"


domestic Sha,east Peir Phase-1rgi Airport,shamshabad ,hydrabaad-500108


",10:00 AM to 9:00 PM,"MINISO RGI AIRPORT, Hyderabad",17.34348584,78.41754253
Hyderabad,INORBIT MALL CYBERABAD,"S No. 64, Inorbit Mall Rd, Apiic Software Layout, Mindspace, Madhapur, Hyderabad, Telangana - 500081",11:00 AM to 10:00 PM,"INORBIT MALL CYBERABAD, Hyderabad",17.43335,78.38591
Hyderabad,SARATH CITY CAPITAL MALL,"Ground Floor, Sarath City Capital Mall, Gachibowli - Miyapur Road, White Field Rd, Kondapur, Hyderabad, Telangana - 500084",11:00 AM to 10:00 PM,"SARATH CITY CAPITAL MALL, Hyderabad",17.45712,78.36462
Hyderabad,FORUM SUJANA MALL,"Lg-20, Forum Sujana Mall, Kukatpally, Hyderabad - 500072",11:00 AM to 10:00 PM,"FORUM SUJANA MALL, Hyderabad",17.47721,78.3921
Hyderabad,NEXT GALLERIA MALL,"Next Galleria Mall, Panjagutta, Hyderabad - 500082",11:00 AM to 10:00 PM,"NEXT GALLERIA MALL, Hyderabad",17.42999,78.45075
INDORE,SAPNA SANGEETA INDORE,"Besides Apna Sweets Shop No 29, Devraj Complex Opp Sapna Sangeeta Inox Theatre Indore, Mp 452001",11:00 AM to 9:30 PM,"SAPNA SANGEETA INDORE, INDORE",22.69938,75.86805
INDORE,MINISO INDORE,"Shopn No 19, Ground Floor,benchmark Business Park,satya Sai Square,vijay Nagar, Indore M.p 452010
",11:00 AM - 10:00 PM,"MINISO INDORE, INDORE",22.71622,75.86512
Jabalpur,SADAR BAZAR JABALPURSADAR BAZAR,"11 Kingsway,sardar,jabalpur Madhya Pradesh 482001",11:00 AM to 9:30 PM,"SADAR BAZAR JABALPURSADAR BAZAR, Jabalpur",23.15359,79.94595
Jaipur,VAISHALI NAGAR.,"A1,vaibhav Multi Spectrum Complex, C-1block Vaishali Nagar Jaipur 302021",11:00 AM to 9:30 PM,"VAISHALI NAGAR., Jaipur",26.91042,75.74304
Jaipur,VAISHALI NAGAR,Sr 2 F Block Guman Tower Vaishali Nagar Jaipur,11:00 AM to 9:00 PM,"VAISHALI NAGAR, Jaipur",26.91042,75.74304
Jaipur,GAURAV TOWER,"306, D-block, Crystal Court, Malviya Nagar, Jaipur, Rajasthan - 302017",11:00 AM to 10:00 PM,"GAURAV TOWER, Jaipur",26.85505,75.80658
Jaipur,TRITON MEGA MALL,"Maharaja Shekhoje Roa Circle Chomu Pulaia, Jhotwara Rd, Jaipur, Rajasthan - 302012",11:00 AM to 10:00 PM,"TRITON MEGA MALL, Jaipur",26.94072,75.77119
Jaipur,VAIBHAV COMPLEX (INOX),"Ground Floor, Vaibhav Complex (inox), Amrapali Circle, Jaipur - 302021",11:00 AM to 9:00 PM,"VAIBHAV COMPLEX (INOX), Jaipur",27.17287,75.72923
Jalandhar,MODEL TOWN (JALANDHAR),"578, Ground Floor, Model Town, Jalandhar, Punjab - 144003",11:00 AM to 9:00 PM,"MODEL TOWN (JALANDHAR), Jalandhar",31.30996,75.57934
Jamshedpur,P&M HI-TECH CITY CENTRE MALL,"Shop No. 64, P&m Hi-tech City Centre Mall, Mauja, Jugsulai, Outer Circle Road, Millenium Park, Bistupur, Jamshedpur, Jharkhand - 831001",11:00 AM to 10:00 PM,"P&M HI-TECH CITY CENTRE MALL, Jamshedpur",22.78539,86.18106
JODHPUR,"B ROAD, JODHPUR",B Road Sardar Pura Near Reliance Trends Gandhi Maidan Jodhpur 342003,11:00 AM to 9:00 PM,"B ROAD, JODHPUR, JODHPUR",26.27955061,73.01017179
Kannur,OLGUTZ LIFESTYLE CENTRE,"Olgutz Lifestyle Centre, Mahatma Gandhi Rd, Thavakkara, Kannur, Kerala - 670001",11:00 AM to 10:00 PM,"OLGUTZ LIFESTYLE CENTRE, Kannur",11.87484,75.3763
Kanpur,Z SQUARE MALL,"G - 34, Ground Floor, Z Square Mall, Mall Road, Bada Chauraha, Downtown, Kanpur, Uttar Pradesh - 208001",11:00 AM to 10:00 PM,"Z SQUARE MALL, Kanpur",26.47287,80.35215
Karnal,KARNAL,"Shop No.18/731, Ground Floor, Kanjpura Road, Karnal, Hr-132001
",11:00 AM - 10:00 PM,"KARNAL, Karnal",29.69197,76.98448
KARNATAKA,FORUM FALCON CITY,"


forum Falcon City Banglore


",10:00 AM to 9:00 PM,"FORUM FALCON CITY, KARNATAKA",14.70704056,76.17027556
KARNATAKA,MINISO NEW BELL ROAD,"


no-22 Ground And First Floor Beside Us Polo  Ramesh Memorial Hospital Banglore


",10:00 AM to 9:00 PM,"MINISO NEW BELL ROAD, KARNATAKA",13.03585,77.56703
KARNATAKA,MINISO UTTARAHALLI,"1&2 Ground Floor 20&21, Uttarahalli Main Road Banglore-560061",,"MINISO UTTARAHALLI, KARNATAKA",12.89757,77.5283
KARNATAKA,SHERI LIFESTYLES,Khade Bazzar,10:00 AM to 9:00 PM,"SHERI LIFESTYLES, KARNATAKA",17.42481,77.19955
KARNATAKA,MAYSOORE,"G-2, Forum Centre City Mall, No.8 & N-5, Hyder Ali Road, Nazarbad Mohalla, Mysuru, Karnataka 570019",10:00 AM to 9:00 PM,"MAYSOORE, KARNATAKA",12.8913135,77.38728651
kerela,MINISO HILITE  MALL,"Ground Floor ,unit No.0049 Door No.2/1149-g53,hilite Mall ,ga College Post ,hilite City ,olavanna, Kozhikode, Kerala, 673014",10:00 AM to 9:00 PM,"MINISO HILITE  MALL, kerela",11.24873,75.83409
kerela,LULU MALL TRIVENDRUM,G01 First Floor Lulu Mall,10:00 AM to 9:00 PM,"LULU MALL TRIVENDRUM, kerela",8.55794,76.8767
kerela,MINISO HILITE MALL,Hilite Mal Kozhikode Kerala,10:00 AM to 9:00 PM,"MINISO HILITE MALL, kerela",11.24873,75.83409
KHRAR PUNJAB,MINISO KHRAR,"Kurli Road Khrar , Sas Nagar, Punjab, 140301",11:00 AM - 10:00 PM,"MINISO KHRAR, KHRAR PUNJAB",31.31668,75.9596
Kolkota,SOUTH CITY KOLKATA,South City Kolkata,10:00 AM to 9:00 PM,"SOUTH CITY KOLKATA, Kolkota",22.57059,88.37133
Kolkota,ACROPOLIS,"


f-oo9&10 1st Floor 1858/1 Rajdanga Main Road Kolkata 700107


",10:00 AM to 9:00 PM,"ACROPOLIS, Kolkota",22.51476,88.39287
Kolkota,MINISO KOLKATA,"F-oo9 & 10 1st Floor 1858/1 Rajdanga, Main Road Kolkata, West Bengal-700107
",11:00 AM - 09:00 PM,"MINISO KOLKATA, Kolkota",22.50206,88.3617
Kolkota,SOUTH CITY MALL,375 Prince Anwar Shah Road Southcity Complex Jadavpur West Bengal Kolkata:-700068,10:00 AM to 9:00 PM,"SOUTH CITY MALL, Kolkota",22.50206,88.3617
Kolkota,ACROPOLIS MALL,1858/1 Rajdanga Main Road. Kolkata:700107,10:30 AM to 9:00 PM,"ACROPOLIS MALL, Kolkota",22.51476,88.39287
Kurukshetra,KURUKSHETRA,"Shop Number G-21, 26, Kessel Mall, Sector 17, City Centre, Kurukshetra, Haryana, Pin - 136118",11:00 AM - 10:00 PM,"KURUKSHETRA, Kurukshetra",29.97323,76.83214
Ladakh,MAIN MARKET LEH,Shyok Complex Adjoinning Sbi Bank Main Branch Leh Main Market Ladakh 194101,11:00 AM to 9:30 PM,"MAIN MARKET LEH, Ladakh",34.15266,77.577
Lucknow,"ONE AWADH MALL, GOMTI NAGAR","Unit No. 2, Ground Floor, One Awadh Mall, Plot No.384, Gomti Nagar Road, Vibhuti Khand, Opposite Apna Bazaar, Lucknow, Uttar Pradesh 226010",11:00 AM to 10:00 PM,"ONE AWADH MALL, GOMTI NAGAR, Lucknow",26.86181,81.01055
Lucknow,SAHARA GANJ MALL,"112, Sahara Ganj Mall, Hazratganj, Lucknow - 226001",11:00 AM to 10:00 PM,"SAHARA GANJ MALL, Lucknow",26.85574,80.94559
Lucknow,ONE AWADH MALL,"One Awadh Center Mall, Plot No 384, Vibhuti Khand, Gomtinagar Lucknow, Uttar Pradesh 226010",11:00 AM to 10:00 PM,"ONE AWADH MALL, Lucknow",26.86181,81.01055
Ludhiana,PAVILLION MALL,"A-15, Atrium Floor, Pavillion Mall, B-i-1258, Kailash Cinema Rd, Civil Lines, Ludhiana, Punjab 141008",11:00 AM - 09:30 PM,"PAVILLION MALL, Ludhiana",30.91537,75.84094
Ludhiana,THE WAVE MALL,"Lg 3, 4, 5, The Wave Mall, Ferozepur Road, Opp. Forest Office, Ludhiana, Punjab - 141012",11:00 AM to 10:00 PM,"THE WAVE MALL, Ludhiana",30.88633,75.78871
MAHARASHTRA,MINISO DADAR HIGH STREET,"Miniso, Shop No. 1 & 2, Vasant Niwas, Opposite Dadar Railway Station, Ranade Road, Dadar West, Mumbai-400028",10:00 AM to 9:00 PM,"MINISO DADAR HIGH STREET, MAHARASHTRA",18.4965,73.86269
MAHARASHTRA,MINISO SANGLI,"Sfc Megaa Mall Shop No. Ug07, Sangli 416416",10:00 AM to 9:00 PM,"MINISO SANGLI, MAHARASHTRA",16.85438,74.56417
MAHARASHTRA,GROWELS 101 MALL,"05, Ground Floor, Growels 101 Mall, Akurli Road, Western Express Highway, Kandivali East, Mumbai - 400101",11:00 AM to 10:00 PM,"GROWELS 101 MALL, MAHARASHTRA",19.20233,72.86139
MAHARASHTRA,KUMAR PACIFIC MALL STORE,Kumar Pacific Mall Shankar Sheth Road Gultekdi Pune - 411042,10:00 AM to 10:00 PM,"KUMAR PACIFIC MALL STORE, MAHARASHTRA",18.50158,73.87224
MAHARASHTRA,NIRALA BAZAAR AURANGABAD,Shop No 13.14 Tapadiya Circle Near Domino's Nirala Bazar Aurangabad,10:00 AM to 10:10 PM,"NIRALA BAZAAR AURANGABAD, MAHARASHTRA",19.87834381,75.32584472
Manipur,CVN BUILDING IMPHAL,Cvv Building New Checkon Opp Central Arcade Imphal-795001,10:30 AM to 6:30 PM,"CVN BUILDING IMPHAL, Manipur",24.80756,93.92864
Mathura,"KRISHNA NAGAR, MATHURA","Khata No. 72, Mauja Keshopur Manoharpur, Diable Nagar , Krishna Nagar, Mathura, Uttar Prades 281004",11:00 AM to 10:00 PM,"KRISHNA NAGAR, MATHURA, Mathura",27.49575,77.65987
MINISO TIRUPATI,MINISO TIRUPATI,"G.f-10-13-480, Vv Mahal Road, Tirupati, Chittoor,andhra Pradesh, 517501",10:00 AM to 9:00 PM,"MINISO TIRUPATI, MINISO TIRUPATI",13.63745582,79.43343779
Mohali,VR PUNJAB,"Vr Punjab, G - 78, Ground Floor, Sector 118, Nh-21, Mohali Kharar Road, Mohali, S.a.s Nagar, Punjab, India - 160059",11:00 AM to 10:00 PM,"VR PUNJAB, Mohali",30.7379,76.67927
Mumbai,GROWELS 101 MALL,"05, Ground Floor, Growels 101 Mall, Akurli Road, Western Express Highway, Kandivali East, Mumbai - 400101",11:00 AM to 10:00 PM,"GROWELS 101 MALL, Mumbai",19.20233,72.86139
Mumbai,OBERAI MALL,"1st Floor, Miniso Lifestyle, Pvt Ltd, Western Express Hwy, Yashodham. Goregaon, Mumbai, Maharashtra-400063",11:00 AM to 9:30 PM,"OBERAI MALL, Mumbai",19.17446,72.86074
Mumbai,"BORIVALI, MUMBAI","Shop No. 3, 4 & 15, Ground And First Floor, Narayan Niwas Building, Lt Road, Next To Diamond Cinema",,"BORIVALI, MUMBAI, Mumbai",19.25265,72.84968
Mumbai,"HILL ROAD, BANDRA","50, Canara Building, Hill Road, Near Elco, Opp. Trios Mall, Bandra West, Mumbai - 400050",,"HILL ROAD, BANDRA, Mumbai",19.05507636,72.87525097
Mumbai,COLABA,"Shop No. 1, Ground And Mezz Floor, 43/45, Mathuradas Estate, Colaba Causeway, Mumbai-suburban, Mumbai, Maharashtra - 400005",11:00 AM to 9:00 PM,"COLABA, Mumbai",18.9154,72.82592
Mumbai,LOKHANDWALA COMPLEX,"Shop No. 13, Twin Tower, Lokhandwala Complex, Andheri (w), Mumbai, Maharashthra - 400047",11:00 AM to 9:00 PM,"LOKHANDWALA COMPLEX, Mumbai",19.14233,72.82862
Mumbai,R CITY MALL,"F-21 & 22, First Floor, R-city Mall, Lal Bahadur Shastri Road, Amrut Nagar, Ghatkoper, West Mumbai",11:00 AM to 10:15 PM,"R CITY MALL, Mumbai",19.13872,72.8317
Mumbai,"PHOENIX MARKETCITY, MUMBAI","F - 65, First Floor, Phoenix Market City, Kurla, Mumbai",11:00 AM to 10:00 PM,"PHOENIX MARKETCITY, MUMBAI, Mumbai",19.08598,72.88904
Mumbai,INFINITI MALAD,"Shop No: 113a, First Floor, Infiniti Mall, Malad (w), Mumbai",11:00 AM to 10:00 PM,"INFINITI MALAD, Mumbai",19.18505,72.83561
MYSORE,BHARTIYA MALL,"Bhartiya City, Kannuru, Bengaluru, Karnataka 560064",10:30 AM to 9:00 PM,"BHARTIYA MALL, MYSORE",12.32881999,76.647025
MYSORE,DEVARAJ ROAD MYSORE,100 Footline Devraj Urs Road,10:30 AM to 9:30 PM,"DEVARAJ ROAD MYSORE, MYSORE",12.30929024,76.64817031
MYSORE,MAYSOORE,"G-2, Forum Centre City Mall, No.8 & N-5, Hyder Ali Road, Nazarbad Mohalla, Mysuru, Karnataka 570019",10:00 AM to 9:00 PM,"MAYSOORE, MYSORE",12.30478,76.70462961
Nagaland,CHUMUKEDIMA,"7th Mile ,ward No:11 Chumukedima, Nagaland 797103",10:00 AM to 9:00 PM,"CHUMUKEDIMA, Nagaland",25.81039,93.78775
Nagaland,"NYAMO LOTHA ROAD, DIMAPUR, NAGALAND","Miniso, C/o Re-invented Infra Tech, Nyamo Lotha Road, Dmapur 797112 Nagaland",9:00 am - 6:30 pm,"NYAMO LOTHA ROAD, DIMAPUR, NAGALAND, Nagaland",25.91174,93.7217
Navi Mumbai,"INORBIT MALL, VASHI","Inorbit Mall, Plot No.- 88, 39, 1, Palm Beach Rd, Sector 30a, Vashi, Navi Mumbai, Maharashtra - 400705",11:00 AM to 10:00 PM,"INORBIT MALL, VASHI, Navi Mumbai",19.06558,73.00064
Navi Mumbai,"GAGANGIRI BUILDING, VASHI","Shop No. 8c, Gagangiri Building, Plot No. 47, Sector 17, Vashi, Maharashtra - 400703",11:00 AM to 10:00 PM,"GAGANGIRI BUILDING, VASHI, Navi Mumbai",19.08006,72.99861
Navi Mumbai,"ORION MALL, PANVEL","Final Plot No 311, Near St Bus Depot, Panvel, Forest Colony, Panvel, Navi Mumbai, Maharashtra - 410206",11:00 AM to 10:00 PM,"ORION MALL, PANVEL, Navi Mumbai",18.99326,73.11548
New Delhi,"MINISO PACIFIC MALL, JASOLA APOLLO","Shop Number F09 Ground Floor Pacific Mall, Jasola Apollo Metro Station, Cpd48, Sarita Vihar, New Delhi 110044",10:00 AM to 9:00 PM,"MINISO PACIFIC MALL, JASOLA APOLLO, New Delhi",28.54059,77.29678
New Delhi,TILAK NAGAR,"Miniso ,floor 1 ,pacific Mall Tagore Garden,tilak Nagar , West Delhi 110018",11:00 AM to 9:00 PM,"TILAK NAGAR, New Delhi",28.64089,77.08922
New Delhi,PREET VIHAR,"8, Bharti Artist Colony ,next To Metro Pillar Number 74, Block C,  Preet Vihar, Delhi, 110092",11:00 AM to 9:00 PM,"PREET VIHAR, New Delhi",28.63902,77.29598
New Delhi,"IN2E UNITY ONE MALL, JANAKPURI","Shop Number 25 And 26, Ground Floor, Unity One Janakpuri, Mlcp Plot, Janakpuri (west) Metro Station Complex, New Delhi-110058",,"IN2E UNITY ONE MALL, JANAKPURI, New Delhi",28.6291,77.07712
New Delhi,RAMPHAL CHOWK,"B - 300, Palam Extension, Main Road, Ramphal Chowk, Sector 7, Dwarka, New Delhi - 110075",11:00 AM to 9:00 PM,"RAMPHAL CHOWK, New Delhi",28.59064001,77.07174001
New Delhi,PASCHIM VIHAR (B2 MARKET),"A3/180, Ground Floor, B2 Market, Paschim Vihar, New Delhi - 110063",11:00 AM to 9:00 PM,"PASCHIM VIHAR (B2 MARKET), New Delhi",28.66933,77.09173
New Delhi,KAROL BAGH,"Shop No. 5/15, Ajmal Khan Road, Karol Bagh, New Delhi - 110005",11:00 AM to 9:00 PM,"KAROL BAGH, New Delhi",28.65048,77.1887
New Delhi,AMBIENCE MALL,"F - 102&103, Plot No. 2, Nelson Mandela Marg, Vasant Kunj 2, New Delhi",11:00 AM to 10:00 PM,"AMBIENCE MALL, New Delhi",28.54083,77.15538
New Delhi,KAMLA NAGAR,"13ub, Jawahar Nagar, Bunglow Road, Kamla Nagar, New Delhi",11:00 AM to 9:15 PM,"KAMLA NAGAR, New Delhi",28.68373,77.20158
New Delhi,PARSVNATH MALL,"Ground Floor-18,19,20,46,47 & 48 At Parsvnath Mall At Akshardham Metro Station, New Delhi",11:00 AM to 10:00 PM,"PARSVNATH MALL, New Delhi",28.61792,77.27995
New Delhi,KOHAT ENCLAVE,"Plot No: 4, Ground Floor, Kohat Enclave, Pitampura, Near Kohat Metro Station, New Delhi",11:00 AM to 9:30 PM,"KOHAT ENCLAVE, New Delhi",28.69659,77.13892
New Delhi,RAJOURI GARDEN,"F-130, Rajouri Garden Main Market, New Delhi",11:00 AM to 9:30 PM,"RAJOURI GARDEN, New Delhi",28.64562,77.12209
New Delhi,PREET VIHAR,"C-59, Ground Floor, Preet Vihar, Vikas Marg, New Delhi",11:00 AM to 9:30 PM,"PREET VIHAR, New Delhi",28.63902,77.29598
New Delhi,GREATER KAILASH 1,"M-56, Greater Kailash-1, M-block Market, New Delhi",11:00 AM to 10:00 PM,"GREATER KAILASH 1, New Delhi",28.55291,77.23723
New Delhi,MALVIYA NAGAR,"D - 81, Main Market Road, Malviya Nagar, New Delhi",11:00 AM to 9:30 PM,"MALVIYA NAGAR, New Delhi",28.53384,77.20695
New Delhi,WORLDMARK AEROCITY,"Worldmark1, Aerocity",11:00 AM to 10:00 PM,"WORLDMARK AEROCITY, New Delhi",28.55093,77.12242
New Delhi,MODEL TOWN PHASE 2,"H-4/3, Ground Floor, Model Town 2, New Delhi - 110019",11:00 AM to 9:30 PM,"MODEL TOWN PHASE 2, New Delhi",28.7067,77.19316
Noida,LOGIX MALL,Miniso 1st Floor Logix City Centre Mall Sector 32 Noida Uttar Pradesh 201301,10:45 AM to 8:30 PM,"LOGIX MALL, Noida",28.58205,77.36515
Noida,GVM MALL,"Grand Venice Mall, Plot No. Sh-4, Surajpur Industrial Area, Greater Noida, 201308",11:00 AM to 7:30 PM,"GVM MALL, Noida",28.56891911,77.33872481
Noida,MOI,"D15,miniso,ground Floor,dlf Mall Of India ,nodiasec-18,pincode:-201301
",11:00 AM to 9:30 PM,"MOI, Noida",28.53342,77.3819
Noida,DLF MALL OF INDIA,"Plot No. M-03, Sector 18, Noida, D10a, 10b, D51 & D52, Lower Ground Floor",11:00 AM to 10:00 PM,"DLF MALL OF INDIA, Noida",28.56792,77.32163
Noida,LOGIX CITY CENTER,"Shop No. 113, First Floor, Logix City Center Mall, Noida City Center, Near Noida City Center Metro Station",11:00 AM to 10:00 PM,"LOGIX CITY CENTER, Noida",28.57318,77.35449
Panchkula,PANCHKULA,"Sco 343, Sector-9, Panchkula-134109",10:30 AM - 09:00 PM,"PANCHKULA, Panchkula",30.70457,76.86396
Panipat,PANIPAT,"173-l Ram Lal Chowk , Model Town Panipat Haryana 132103",10:30 AM - 09:00 PM,"PANIPAT, Panipat",29.38747,76.96825
PATIALA,MINISO PATIALA,"Near Dav Public School Bhupindra Road, Patiala, Punjab",11:00 AM - 10:00 PM,"MINISO PATIALA, PATIALA",30.33625,76.3922
Patna,MINISO NAVYUG MARKET,"


city Centre ,budh Market ,opp Fire Station Patna , Bihar


",10:00 AM to 9:00 PM,"MINISO NAVYUG MARKET, Patna",25.60129,85.13752
Patna,MINISO PATNA,"City Centre ,budh Market ,opp Fire Station Patna , Bihar",10:00 AM to 9:00 PM,"MINISO PATNA, Patna",25.60129,85.13752
Patna,KANKARBAGH PATNA,"Nidhi Business Centre Miniso Store Kankarbagh Colony,patna, Bihar (800020)",11:00 AM to 10:00 PM,"KANKARBAGH PATNA, Patna",25.59255,85.14625
Pune,ELPORO MALL,"Elporo Mall ,chapekar Chouk, Chinhwad ,pune",10:00 AM to 9:00 PM,"ELPORO MALL, Pune",18.62836,73.78449
Pune,MINISO PUNE,"Elporo Mall ,chapekar Chouk, Chinhwad ,pune",10:00 AM to 9:00 PM,"MINISO PUNE, Pune",18.51872,73.9335
Pune,KUMAR PACIFIC MALL STORE,Kumar Pacific Mall Shankar Sheth Road Gultekdi Pune - 411042,10:00 AM to 10:00 PM,"KUMAR PACIFIC MALL STORE, Pune",18.50158,73.87224
Pune,KUMAR PACIFIC MALL,"Shankar Sheth Rd, Vrindavan Society, Guru Nanak Nagar, Pune, Maharashtra - 411042",11:00 AM to 10:00 PM,"KUMAR PACIFIC MALL, Pune",18.50158,73.87224
Pune,THE PAVILLION MALL,"Senapati Bapat Road, Durga Nagar, Model Colony, Shivajinagar, Laxmi Society, Model Colony, Shivajinagar, Pune, Maharashtra - 411016",11:00 AM to 10:00 PM,"THE PAVILLION MALL, Pune",18.53299,73.82998
Pune,PHOENIX MALL,"Clover Park, Viman Nagar, Pune, Maharashtra - 411014",11:00 AM to 10:00 PM,"PHOENIX MALL, Pune",18.56092,73.91715
Pune,AMANORA MALL,"Store No. Wb-gf-45, 46 & 47, Ground Floor, Amanora Mall, Pune, Maharashtra - 411028",11:00 AM to 10:00 PM,"AMANORA MALL, Pune",18.51856,73.93687
punjab,MINISO PATHANKOT,Golds Gym Building Dhangu Road Pathankot,10:00 AM to 9:00 PM,"MINISO PATHANKOT, punjab",32.27054,75.64904
punjab,MINISO CHANDIGARH,"Sco 8 Inner Market Sector 8b, Chandigarh",10:00 AM to 9:00 PM,"MINISO CHANDIGARH, punjab",30.54398,75.95563
Purnea,PURNEA,"Miniso Showroom Harsha Hotel Road Chitravani Chowk Purnea Bihar,india 84301",11:00 AM to 10:00 PM,"PURNEA, Purnea",25.77687,87.47435
Raipur,AMBUJA MALL RAIPUR,"Ambuja City Center Mall, Vill- Mowa Vidhan Sabha Road, Kusha Bahu Tahkre, Raipur Chattishgarh-492007
",11:00AM-10:00PM,"AMBUJA MALL RAIPUR, Raipur",21.27651,81.6868
Raipur,MAGNETO MALL,"Gf-06a, Ground Floor, Magneto The Mall G. E Road, Labhandhi, Raipur Chattishgarh-492001",11:00AM - 10:00PM,"MAGNETO MALL, Raipur",21.23926,81.68352
Raipur,AMBUJA CITY CENTRE,"Shop No. 55, Ambuja City Centre, Main Vidhan Sabha Road, Near Saddu, Nala, Mowa, Raipur, Chhattisgarh - 492007",,"AMBUJA CITY CENTRE, Raipur",21.27551,81.68717
Rajkot,CRYSTAL MALL,"Shop No: 1-a, Ground Floor, Crystal Mall, Opp. Rani Tower, Ghanshyam Nagar, Rajkot, Gujarat - 360005",,"CRYSTAL MALL, Rajkot",22.27966,70.76366
Ranchi,DELUX ENCLAVE,Delux Enclave Ground Floor Opposite Plaza Cinema Hb Road Tharpakna Lalpur Ranchi Jharkhand 834001,11:00 AM - 9:00PM,"DELUX ENCLAVE, Ranchi",23.35065,85.31374
Ranchi,NUCLEUS MALL,"Shop No. 53, Nucleus Mall, Circular Road, Lalpur, Ranchi, Jharkhand - 834001",11:00 AM to 10:00 PM,"NUCLEUS MALL, Ranchi",23.36542,85.33216
Rohini,CITY CENTRE ROHINI,Shop No. G12 City Centre Mall Rohini West,11:00 AM - 10:00 PM,"CITY CENTRE ROHINI, Rohini",28.71748,77.11474
Rohini,ROHINI,"A-1/9, Pocket 1, Sector 8, Rohini, Delhi 110085, Near Deepali Chowk",10:00 AM to 10:00 PM,"ROHINI, Rohini",28.74322,77.06778
Rohtak,MODEL TOWN,"Shop No. 390, Near Hdfc Bank, Model Town, Rohtak, Haryana 124001",11:00 AM - 10:00 PM,"MODEL TOWN, Rohtak",28.8893,76.61172
Salem,SHARDHA COLLEGE ROAD STORE,"Narasus Murli Complex , Shardha College Road, Salem Tamil Nadu 636016",10:00 AM to 9:30 PM,"SHARDHA COLLEGE ROAD STORE, Salem",11.66332,78.1827
Salem,SARADA COLLEGE RD,"Narasus Murli Complex, Sarada College Road, Salem, Tamil Nadu - 636016",11:00 AM to 9:00 PM,"SARADA COLLEGE RD, Salem",11.6636677,78.18140711
Siliguri,COSMOS MALL,"Cosmos Mall, Sevoke Road, Opp. Power House, Ward 43, Ward 43, Dasrath Pally, Bhanu Nagar, Siliguri, West Bengal - 734001",11:00 AM to 10:00 PM,"COSMOS MALL, Siliguri",26.73851,88.43454
Siliguri,CITY CENTRE SILIGURI,"City Centre Mall, The Uttorayon Township, Matigara, Nh-31, Siliguri, West Bengal - 734010",11:00 AM to 10:00 PM,"CITY CENTRE SILIGURI, Siliguri",26.72372,88.3948
SIRINAGAR,CITY WALK,"City Walk Mall, Mall Road, Srinagar, Jammu And Kashmir 190001",11:00 AM to 9:30 PM,"CITY WALK, SIRINAGAR",30.5219,76.19242
Sirsa,MINISO SIRSA,"Rori Bazar,gali Punjab National Bank,opposite Ajanta Cloth House, Sirsa (haryana)",11:00 AM - 10:00PM,"MINISO SIRSA, Sirsa",29.53952,75.03104
Surat,ADAJAN,"G-4, G-5, Aqua Corridor, Next To Star Bazar, Adajan, Surat, Gujarat 395009",11:00 AM to 10:00 PM,"ADAJAN, Surat",21.2009,72.79468
Surat,VR SURAT,"Vr Surat, Fp29, Dumas Rd, New Magdalla, Magdalla, Gujarat - 395007",11:00 AM to 10:00 PM,"VR SURAT, Surat",21.18583,72.83666
Surat,AQUA CORRIDOR,"Ground Floor, Aqua Corridor, Near Star Bazaar, Adajan, Surat, Gujarat - 395009",11:00 AM to 9:00 PM,"AQUA CORRIDOR, Surat",21.18695,72.79384
Tamil nadu,TIRUPUR,"


303/136, Kumran Road Tirupur


",10:00 AM to 9:00 PM,"TIRUPUR, Tamil nadu",11.11541,77.35456
Tamil nadu,MINISO VILLUPURAM,"247, Trichy Main Road Villupuram Tamilnadu 605602",10:00 AM to 9:00 PM,"MINISO VILLUPURAM, Tamil nadu",11.93975,79.49244
Tamil nadu,MINISO ADYAR,21-a Sardar Patel Road Adyar 600020,10:00 AM to 9:00 PM,"MINISO ADYAR, Tamil nadu",13.00303,80.25186
Telengana,AMR PLANET MALL,1st Floor Trimulgherry Ecil Road Moula Ali 500040,10:00 AM to 9:00 PM,"AMR PLANET MALL, Telengana",16.96962,78.72969
Thane,MINISO THANE,"Shop No- 4 , Ishan Arcade 1,opp Hanuman Mandir , Naupada , Thane West -400602
",10:00 AM to 9:00 PM,"MINISO THANE, Thane",19.20818,72.9721
Thane,XPERIA MALL STORE,"Shop No. 95, Ground Floor, Xperia Mall, Opposite Lodha World School, Palava City,  Dombivli East, Thane, Maharashtra - 421204",11:00 AM to 10:00 PM,"XPERIA MALL STORE, Thane",19.16511,73.07451
THILLAINAGAR,MINISO THILLAINAGAR,"Plot No :- B-20/12, Ground Floor, Sasthri Road , Thillainagar, Trichy 620018",10:00 AM to 9:00 PM,"MINISO THILLAINAGAR, THILLAINAGAR",10.82316,78.68656
Tripura,AGARTALA,"L.n Bari Road, Ganaraj Chownami, Near Akshita Motors, Tripura West-799001 ",10:00 AM to 8:00 PM,"AGARTALA, Tripura",23.8292,91.29058
Trivandrum,MALL OF TRAVANCORE MALL OF TRAVANCORE,"Ground Floor, Mall Of Travancore, Trivandrum-695012
",10:00 AM to 9:00 PM,"MALL OF TRAVANCORE MALL OF TRAVANCORE, Trivandrum",8.48719,76.92699
U.P,MINISO GHAZIABAD,"


f28,f29,ground Floor ,edm Mall Kaushambi, Ghaziabad ,up


",10:00 AM to 9:00 PM,"MINISO GHAZIABAD, U.P",28.64567,77.32002
U.P,MINISO MORADABBAD,"


shop No- 5,6 Wave Mall ,ramganga Vihar Moradabad


",10:00 AM to 9:00 PM,"MINISO MORADABBAD, U.P",28.83893,78.77684
U.P,MINISO EDM MALL KAUSHAMBI,"F28,f29,ground Floor ,edm Mall Kaushambi, Ghaziabad ,up
",11:00 AM - 10:00PM,"MINISO EDM MALL KAUSHAMBI, U.P",25.4990444,81.41698342
Vadodara,SARABHAI ROAD,"B-11, Rajesh Tower Road, Gotri, Vadodara, Gujarat - 390021",11:00 AM to 10:00 PM,"SARABHAI ROAD, Vadodara",22.30946,73.17988
Vadodara,OCEAN COMPLEX,"Shop No. 5, Ocean Complex, Sarabhai Road, Near Genda Circle, Vadodara, Gujarat - 390020",11:00 AM to 9:00 PM,"OCEAN COMPLEX, Vadodara",,
west bengal,MINISO KALIMPONG,"Miniso, Ground Floor Big Will Mart,below Girls High School,reshi Road,kalimpong",10:00 AM to 9:00 PM,"MINISO KALIMPONG, west bengal",,
Yamuna Nagar,"MODEL TOWN, YAMUNA NAGAR","Mela Singh Road, Model Town Yamunanagar 135001",10:30 AM - 09:00 PM,"MODEL TOWN, YAMUNA NAGAR, Yamuna Nagar",,
ZIRAKPUR,MINISO ZIRAKPUR,Zirakpur Road Punjab,11:00 AM - 10:00 PM,"MINISO ZIRAKPUR, ZIRAKPUR",,
